ASTROCAST-0402          
1 55109U 23001DE  26068.80661100  .00010930  00000+0  41835-3 0  9996
2 55109  97.5556 160.6821 0004209 216.6984 143.3966 15.26734153129364
STARLINK-31110          
1 58679U 23211N   26068.40918754  .00000109  00000+0  13471-4 0  9993
2 58679  42.9986  86.6941 0001453 282.2716  77.7973 15.27582049122424
